<?xml version="1.0"?>
<gpx version="1.1" creator="GPX Creator • Bandan Kumar Mahto">
    <metadata>
        <name>Route from Rajkot West to G-1030, Lodhika GIDC</name>
        <time>2026-01-20T12:03:47Z</time>
    </metadata>
    <wpt lat="22.270659099999996" lon="70.73899380000005">
        <time>2026-01-20T12:03:47Z</time>
    </wpt>
    <wpt lat="22.270380199999998" lon="70.73902589999999">
        <time>2026-01-20T12:03:52Z</time>
    </wpt>
    <wpt lat="22.270393199999987" lon="70.73913250000001">
        <time>2026-01-20T12:03:53Z</time>
    </wpt>
    <wpt lat="22.27040630000001" lon="70.73923880000001">
        <time>2026-01-20T12:03:54Z</time>
    </wpt>
    <wpt lat="22.270170099999998" lon="70.73926829999998">
        <time>2026-01-20T12:03:58Z</time>
    </wpt>
    <wpt lat="22.26993399999998" lon="70.73929790000003">
        <time>2026-01-20T12:04:02Z</time>
    </wpt>
    <wpt lat="22.269978999999996" lon="70.73962069999999">
        <time>2026-01-20T12:04:08Z</time>
    </wpt>
    <wpt lat="22.26994359999999" lon="70.7396252">
        <time>2026-01-20T12:04:09Z</time>
    </wpt>
    <wpt lat="22.2699083" lon="70.73962979999999">
        <time>2026-01-20T12:04:10Z</time>
    </wpt>
    <wpt lat="22.269740599999977" lon="70.73845819999997">
        <time>2026-01-20T12:04:31Z</time>
    </wpt>
    <wpt lat="22.26917109999998" lon="70.73396799999999">
        <time>2026-01-20T12:05:55Z</time>
    </wpt>
    <wpt lat="22.26906219999999" lon="70.73297190000002">
        <time>2026-01-20T12:06:13Z</time>
    </wpt>
    <wpt lat="22.2688742" lon="70.73149500000001">
        <time>2026-01-20T12:06:40Z</time>
    </wpt>
    <wpt lat="22.268559199999988" lon="70.72919969999998">
        <time>2026-01-20T12:07:23Z</time>
    </wpt>
    <wpt lat="22.2684792" lon="70.72871990000002">
        <time>2026-01-20T12:07:32Z</time>
    </wpt>
    <wpt lat="22.26839419999998" lon="70.72829480000006">
        <time>2026-01-20T12:07:40Z</time>
    </wpt>
    <wpt lat="22.267832299999984" lon="70.72611180000006">
        <time>2026-01-20T12:08:22Z</time>
    </wpt>
    <wpt lat="22.267607899999984" lon="70.72531749999999">
        <time>2026-01-20T12:08:37Z</time>
    </wpt>
    <wpt lat="22.2674491" lon="70.72472410000002">
        <time>2026-01-20T12:08:48Z</time>
    </wpt>
    <wpt lat="22.26732680000002" lon="70.7241997">
        <time>2026-01-20T12:08:58Z</time>
    </wpt>
    <wpt lat="22.26728739999999" lon="70.72397739999998">
        <time>2026-01-20T12:09:02Z</time>
    </wpt>
    <wpt lat="22.267168600000012" lon="70.72327400000002">
        <time>2026-01-20T12:09:15Z</time>
    </wpt>
    <wpt lat="22.26687719999998" lon="70.72155270000005">
        <time>2026-01-20T12:09:47Z</time>
    </wpt>
    <wpt lat="22.266525999999992" lon="70.71945890000002">
        <time>2026-01-20T12:10:26Z</time>
    </wpt>
    <wpt lat="22.266380500000004" lon="70.71860329999997">
        <time>2026-01-20T12:10:42Z</time>
    </wpt>
    <wpt lat="22.2662983" lon="70.71813090000002">
        <time>2026-01-20T12:10:50Z</time>
    </wpt>
    <wpt lat="22.266202099999994" lon="70.71772889999997">
        <time>2026-01-20T12:10:57Z</time>
    </wpt>
    <wpt lat="22.266117100000002" lon="70.71747370000004">
        <time>2026-01-20T12:11:02Z</time>
    </wpt>
    <wpt lat="22.265905100000005" lon="70.71695869999999">
        <time>2026-01-20T12:11:12Z</time>
    </wpt>
    <wpt lat="22.265715299999986" lon="70.7165819">
        <time>2026-01-20T12:11:19Z</time>
    </wpt>
    <wpt lat="22.265462999999986" lon="70.716196">
        <time>2026-01-20T12:11:27Z</time>
    </wpt>
    <wpt lat="22.2652151" lon="70.71588989999996">
        <time>2026-01-20T12:11:34Z</time>
    </wpt>
    <wpt lat="22.264035099999987" lon="70.7147107">
        <time>2026-01-20T12:12:06Z</time>
    </wpt>
    <wpt lat="22.26354489999999" lon="70.714247">
        <time>2026-01-20T12:12:19Z</time>
    </wpt>
    <wpt lat="22.263316800000005" lon="70.71402510000003">
        <time>2026-01-20T12:12:25Z</time>
    </wpt>
    <wpt lat="22.263098400000004" lon="70.71381280000001">
        <time>2026-01-20T12:12:30Z</time>
    </wpt>
    <wpt lat="22.262928899999995" lon="70.71364859999997">
        <time>2026-01-20T12:12:34Z</time>
    </wpt>
    <wpt lat="22.26239399999999" lon="70.71313520000002">
        <time>2026-01-20T12:12:48Z</time>
    </wpt>
    <wpt lat="22.26198409999998" lon="70.71271480000001">
        <time>2026-01-20T12:12:59Z</time>
    </wpt>
    <wpt lat="22.2617328" lon="70.71243120000001">
        <time>2026-01-20T12:13:06Z</time>
    </wpt>
    <wpt lat="22.261645899999987" lon="70.71233330000001">
        <time>2026-01-20T12:13:08Z</time>
    </wpt>
    <wpt lat="22.261424099999996" lon="70.71208279999999">
        <time>2026-01-20T12:13:14Z</time>
    </wpt>
    <wpt lat="22.261178000000005" lon="70.71175290000004">
        <time>2026-01-20T12:13:21Z</time>
    </wpt>
    <wpt lat="22.2609912" lon="70.71146190000002">
        <time>2026-01-20T12:13:27Z</time>
    </wpt>
    <wpt lat="22.260843199999986" lon="70.71113400000003">
        <time>2026-01-20T12:13:33Z</time>
    </wpt>
    <wpt lat="22.260575099999997" lon="70.7104849">
        <time>2026-01-20T12:13:46Z</time>
    </wpt>
    <wpt lat="22.26030520000001" lon="70.70948579999998">
        <time>2026-01-20T12:14:05Z</time>
    </wpt>
    <wpt lat="22.260037099999995" lon="70.70830689999997">
        <time>2026-01-20T12:14:27Z</time>
    </wpt>
    <wpt lat="22.25978449999999" lon="70.70729980000002">
        <time>2026-01-20T12:14:46Z</time>
    </wpt>
    <wpt lat="22.259606100000006" lon="70.7065799">
        <time>2026-01-20T12:14:59Z</time>
    </wpt>
    <wpt lat="22.259253300000005" lon="70.70490589999999">
        <time>2026-01-20T12:15:30Z</time>
    </wpt>
    <wpt lat="22.258876300000004" lon="70.70330389999997">
        <time>2026-01-20T12:16:00Z</time>
    </wpt>
    <wpt lat="22.258771099999986" lon="70.70285869999998">
        <time>2026-01-20T12:16:08Z</time>
    </wpt>
    <wpt lat="22.2581791" lon="70.70029990000002">
        <time>2026-01-20T12:16:56Z</time>
    </wpt>
    <wpt lat="22.257549200000014" lon="70.69776050000002">
        <time>2026-01-20T12:17:44Z</time>
    </wpt>
    <wpt lat="22.257342199999982" lon="70.69692700000003">
        <time>2026-01-20T12:18:00Z</time>
    </wpt>
    <wpt lat="22.2571821" lon="70.6962179">
        <time>2026-01-20T12:18:13Z</time>
    </wpt>
    <wpt lat="22.256712299999997" lon="70.69411269999999">
        <time>2026-01-20T12:18:53Z</time>
    </wpt>
    <wpt lat="22.2566471" lon="70.69393300000003">
        <time>2026-01-20T12:18:56Z</time>
    </wpt>
    <wpt lat="22.256382100000007" lon="70.69348370000003">
        <time>2026-01-20T12:19:05Z</time>
    </wpt>
    <wpt lat="22.256230099999993" lon="70.69327380000001">
        <time>2026-01-20T12:19:09Z</time>
    </wpt>
    <wpt lat="22.256001999999995" lon="70.69303680000002">
        <time>2026-01-20T12:19:15Z</time>
    </wpt>
    <wpt lat="22.255853100000003" lon="70.69290870000002">
        <time>2026-01-20T12:19:18Z</time>
    </wpt>
    <wpt lat="22.255656000000002" lon="70.69276089999998">
        <time>2026-01-20T12:19:22Z</time>
    </wpt>
    <wpt lat="22.254343499999976" lon="70.69191900000003">
        <time>2026-01-20T12:19:52Z</time>
    </wpt>
    <wpt lat="22.252574999999993" lon="70.6908209">
        <time>2026-01-20T12:20:32Z</time>
    </wpt>
    <wpt lat="22.252177199999995" lon="70.69053899999999">
        <time>2026-01-20T12:20:41Z</time>
    </wpt>
    <wpt lat="22.251865099999982" lon="70.69026270000003">
        <time>2026-01-20T12:20:49Z</time>
    </wpt>
    <wpt lat="22.251606299999985" lon="70.6899918">
        <time>2026-01-20T12:20:56Z</time>
    </wpt>
    <wpt lat="22.251364199999983" lon="70.68969369999999">
        <time>2026-01-20T12:21:03Z</time>
    </wpt>
    <wpt lat="22.251171199999998" lon="70.68937990000005">
        <time>2026-01-20T12:21:09Z</time>
    </wpt>
    <wpt lat="22.2509822" lon="70.6889659">
        <time>2026-01-20T12:21:17Z</time>
    </wpt>
    <wpt lat="22.25075599999999" lon="70.68831780000002">
        <time>2026-01-20T12:21:29Z</time>
    </wpt>
    <wpt lat="22.250392999999992" lon="70.68605770000002">
        <time>2026-01-20T12:22:11Z</time>
    </wpt>
    <wpt lat="22.24995420000001" lon="70.68329">
        <time>2026-01-20T12:23:03Z</time>
    </wpt>
    <wpt lat="22.249665299999982" lon="70.68144090000001">
        <time>2026-01-20T12:23:37Z</time>
    </wpt>
    <wpt lat="22.2495532" lon="70.68097490000002">
        <time>2026-01-20T12:23:45Z</time>
    </wpt>
    <wpt lat="22.247984300000002" lon="70.67708069999999">
        <time>2026-01-20T12:25:03Z</time>
    </wpt>
    <wpt lat="22.247815799999998" lon="70.67666559999998">
        <time>2026-01-20T12:25:11Z</time>
    </wpt>
    <wpt lat="22.246611099999985" lon="70.67367890000003">
        <time>2026-01-20T12:26:11Z</time>
    </wpt>
    <wpt lat="22.2464635" lon="70.67370690000001">
        <time>2026-01-20T12:26:13Z</time>
    </wpt>
    <wpt lat="22.242581299999998" lon="70.6744149">
        <time>2026-01-20T12:27:31Z</time>
    </wpt>
    <wpt lat="22.239746999999994" lon="70.6749698">
        <time>2026-01-20T12:28:28Z</time>
    </wpt>
    <wpt lat="22.2396615" lon="70.6744482">
        <time>2026-01-20T12:28:37Z</time>
    </wpt>
    <wpt lat="22.239576000000007" lon="70.67392669999998">
        <time>2026-01-20T12:28:46Z</time>
    </wpt>
    <wpt lat="22.2370099" lon="70.6744181">
        <time>2026-01-20T12:29:37Z</time>
    </wpt>
</gpx>
